start=new Date('2023-03-25T00:00:00.000Z').valueOf();
sats=[{"EPOCH":"2023-03-24T15:57:13.789152","ECCENTRICITY":"0.00011360","OBJECT_TYPE":"PAYLOAD","OBJECT_ID":"2021-125Q","SEMIMAJOR_AXIS":"6917.837","RCS_SIZE":"LARGE","COUNTRY_CODE":"US","REF_FRAME":"TEME","NORAD_CAT_ID":"50170","REV_AT_EPOCH":"7339","MEAN_MOTION_DDOT":"0.0000000000000","FILE":"3870109","APOAPSIS":"540.488","RA_OF_ASC_NODE":"62.0252","CENTER_NAME":"EARTH","CLASSIFICATION_TYPE":"U","MEAN_MOTION":"15.08854082","EPHEMERIS_TYPE":"0","ELEMENT_SET_NO":"999","MEAN_ELEMENT_THEORY":"SGP4","TLE_LINE1":"1 50170U 21125Q   23083.66474293  .00003812  00000-0  25739-3 0  9994","LAUNCH_DATE":"2021-12-18","SITE":"AFWTR","OBJECT_NAME":"STARLINK-3245","GP_ID":"228822895","INCLINATION":"53.2157","BSTAR":"0.00025739000000","ARG_OF_PERICENTER":"91.8495","DECAY_DATE":null,"MEAN_MOTION_DOT":"0.00003812","PERIAPSIS":"538.916","TLE_LINE2":"2 50170  53.2157  62.0252 0001136  91.8495 268.2627 15.08854082 73398","MEAN_ANOMALY":"268.2627","PERIOD":"95.437","TIME_SYSTEM":"UTC"},{"ARG_OF_PERICENTER":"90.4955","DECAY_DATE":null,"OBJECT_NAME":"STARLINK-3286","GP_ID":"228791523","INCLINATION":"53.2159","BSTAR":"0.00194310000000","SITE":"AFWTR","LAUNCH_DATE":"2021-12-18","TIME_SYSTEM":"UTC","PERIOD":"95.435","TLE_LINE2":"2 50171  53.2159  63.1489 0001510  90.4955 269.6210 15.08885178 73367","MEAN_MOTION_DOT":"0.00030810","PERIAPSIS":"538.563","MEAN_ANOMALY":"269.6210","FILE":"3869846","APOAPSIS":"540.652","RA_OF_ASC_NODE":"63.1489","NORAD_CAT_ID":"50171","REF_FRAME":"TEME","REV_AT_EPOCH":"7336","MEAN_MOTION_DDOT":"0.0000000000000","RCS_SIZE":"LARGE","SEMIMAJOR_AXIS":"6917.742","COUNTRY_CODE":"US","ECCENTRICITY":"0.00015100","EPOCH":"2023-03-24T09:56:53.679552","OBJECT_ID":"2021-125R","OBJECT_TYPE":"PAYLOAD","MEAN_ELEMENT_THEORY":"SGP4","ELEMENT_SET_NO":"999","TLE_LINE1":"1 50171U 21125R   23083.41451018  .00030810  00000-0  19431-2 0  9997","EPHEMERIS_TYPE":"0","MEAN_MOTION":"15.08885178","CLASSIFICATION_TYPE":"U","CENTER_NAME":"EARTH"},{"OBJECT_TYPE":"PAYLOAD","OBJECT_ID":"2021-125S","EPOCH":"2023-03-24T15:46:38.988480","ECCENTRICITY":"0.00012350","COUNTRY_CODE":"US","RCS_SIZE":"LARGE","SEMIMAJOR_AXIS":"6917.859","REV_AT_EPOCH":"7343","MEAN_MOTION_DDOT":"0.0000000000000","REF_FRAME":"TEME","NORAD_CAT_ID":"50172","APOAPSIS":"540.578","RA_OF_ASC_NODE":"62.0592","FILE":"3870109","CENTER_NAME":"EARTH","CLASSIFICATION_TYPE":"U","MEAN_MOTION":"15.08847161","EPHEMERIS_TYPE":"0","TLE_LINE1":"1 50172U 21125S   23083.65739570  .00004511  00000-0  30124-3 0  9998","MEAN_ELEMENT_THEORY":"SGP4","ELEMENT_SET_NO":"999","LAUNCH_DATE":"2021-12-18","SITE":"AFWTR","BSTAR":"0.00030124000000","GP_ID":"228823897","INCLINATION":"53.2162","OBJECT_NAME":"STARLINK-3287","ARG_OF_PERICENTER":"90.2467","DECAY_DATE":null,"MEAN_ANOMALY":"269.8666","MEAN_MOTION_DOT":"0.00004511","PERIAPSIS":"538.869","TLE_LINE2":"2 50172  53.2162  62.0592 0001235  90.2467 269.8666 15.08847161 73430","PERIOD":"95.437","TIME_SYSTEM":"UTC"},{"ARG_OF_PERICENTER":"100.7523","DECAY_DATE":null,"LAUNCH_DATE":"2021-12-18","SITE":"AFWTR","BSTAR":"0.00334300000000","INCLINATION":"53.2164","GP_ID":"228790522","OBJECT_NAME":"STARLINK-3289","TIME_SYSTEM":"UTC","MEAN_ANOMALY":"259.3589","MEAN_MOTION_DOT":"0.00053420","PERIAPSIS":"538.798","TLE_LINE2":"2 50173  53.2164  53.4214 0001065 100.7523 259.3589 15.08908947 73505","PERIOD":"95.433","MEAN_MOTION_DDOT":"0.0000000000000","REV_AT_EPOCH":"7350","REF_FRAME":"TEME","NORAD_CAT_ID":"50173","APOAPSIS":"540.271","RA_OF_ASC_NODE":"53.4214","FILE":"3869846","OBJECT_TYPE":"PAYLOAD","OBJECT_ID":"2021-125T","EPOCH":"2023-03-24T08:29:30.370272","ECCENTRICITY":"0.00010650","COUNTRY_CODE":"US","SEMIMAJOR_AXIS":"6917.670","RCS_SIZE":"LARGE","EPHEMERIS_TYPE":"0","MEAN_MOTION":"15.08908947","TLE_LINE1":"1 50173U 21125T   23083.35382373  .00053420  00000-0  33430-2 0  9996","MEAN_ELEMENT_THEORY":"SGP4","ELEMENT_SET_NO":"999","CENTER_NAME":"EARTH","CLASSIFICATION_TYPE":"U"},{"GP_ID":"228823395","INCLINATION":"53.2163","OBJECT_NAME":"STARLINK-3292","BSTAR":"0.00033652000000","LAUNCH_DATE":"2021-12-18","SITE":"AFWTR","ARG_OF_PERICENTER":"89.8534","DECAY_DATE":null,"PERIOD":"95.437","PERIAPSIS":"538.990","MEAN_MOTION_DOT":"0.00005073","TLE_LINE2":"2 50174  53.2163  62.1098 0001052  89.8534 270.2579 15.08849098 73442","MEAN_ANOMALY":"270.2579","TIME_SYSTEM":"UTC","RCS_SIZE":"LARGE","SEMIMAJOR_AXIS":"6917.853","COUNTRY_CODE":"US","EPOCH":"2023-03-24T15:30:44.822304","ECCENTRICITY":"0.00010520","OBJECT_TYPE":"PAYLOAD","OBJECT_ID":"2021-125U","FILE":"3870109","RA_OF_ASC_NODE":"62.1098","APOAPSIS":"540.445","REF_FRAME":"TEME","NORAD_CAT_ID":"50174","MEAN_MOTION_DDOT":"0.0000000000000","REV_AT_EPOCH":"7344","CLASSIFICATION_TYPE":"U","CENTER_NAME":"EARTH","ELEMENT_SET_NO":"999","MEAN_ELEMENT_THEORY":"SGP4","TLE_LINE1":"1 50174U 21125U   23083.64635211  .00005073  00000-0  33652-3 0  9999","MEAN_MOTION":"15.08849098","EPHEMERIS_TYPE":"0"},{"COUNTRY_CODE":"US","RCS_SIZE":"LARGE","SEMIMAJOR_AXIS":"6917.848","OBJECT_ID":"2021-125V","OBJECT_TYPE":"PAYLOAD","ECCENTRICITY":"0.00009830","EPOCH":"2023-03-24T16:02:32.435808","RA_OF_ASC_NODE":"62.0091","APOAPSIS":"540.393","FILE":"3870109","MEAN_MOTION_DDOT":"0.0000000000000","REV_AT_EPOCH":"7340","NORAD_CAT_ID":"50175","REF_FRAME":"TEME","CLASSIFICATION_TYPE":"U","CENTER_NAME":"EARTH","TLE_LINE1":"1 50175U 21125V   23083.66843097  .00007653  00000-0  49828-3 0  9993","MEAN_ELEMENT_THEORY":"SGP4","ELEMENT_SET_NO":"999","EPHEMERIS_TYPE":"0","MEAN_MOTION":"15.08850636","BSTAR":"0.00049828000000","GP_ID":"228823146","INCLINATION":"53.2154","OBJECT_NAME":"STARLINK-3291","SITE":"AFWTR","LAUNCH_DATE":"2021-12-18","DECAY_DATE":null,"ARG_OF_PERICENTER":"77.9249","PERIOD":"95.437","MEAN_ANOMALY":"282.1853","TLE_LINE2":"2 50175  53.2154  62.0091 0000983  77.9249 282.1853 15.08850636 73401","PERIAPSIS":"539.033","MEAN_MOTION_DOT":"0.00007653","TIME_SYSTEM":"UTC"},{"ARG_OF_PERICENTER":"102.6373","DECAY_DATE":null,"LAUNCH_DATE":"2021-12-18","SITE":"AFWTR","BSTAR":"0.00022414000000","GP_ID":"228824397","OBJECT_NAME":"STARLINK-3293","INCLINATION":"53.2158","TIME_SYSTEM":"UTC","MEAN_ANOMALY":"257.4694","MEAN_MOTION_DOT":"0.00003282","PERIAPSIS":"539.251","TLE_LINE2":"2 50176  53.2158  62.0933 0000672 102.6373 257.4694 15.08849730 73445","PERIOD":"95.437","REV_AT_EPOCH":"7344","MEAN_MOTION_DDOT":"0.0000000000000","REF_FRAME":"TEME","NORAD_CAT_ID":"50176","RA_OF_ASC_NODE":"62.0933","APOAPSIS":"540.181","FILE":"3870109","OBJECT_TYPE":"PAYLOAD","OBJECT_ID":"2021-125W","EPOCH":"2023-03-24T15:36:02.480544","ECCENTRICITY":"0.00006720","COUNTRY_CODE":"US","SEMIMAJOR_AXIS":"6917.851","RCS_SIZE":"LARGE","MEAN_MOTION":"15.08849730","EPHEMERIS_TYPE":"0","TLE_LINE1":"1 50176U 21125W   23083.65002871  .00003282  00000-0  22414-3 0  9996","MEAN_ELEMENT_THEORY":"SGP4","ELEMENT_SET_NO":"999","CENTER_NAME":"EARTH","CLASSIFICATION_TYPE":"U"},{"ARG_OF_PERICENTER":"83.1069","DECAY_DATE":null,"SITE":"AFWTR","LAUNCH_DATE":"2021-12-18","OBJECT_NAME":"STARLINK-3282","GP_ID":"228824142","INCLINATION":"53.2168","BSTAR":"0.00050867000000","TIME_SYSTEM":"UTC","TLE_LINE2":"2 50177  53.2168  62.0417 0001492  83.1069 277.0093 15.08858225 73406","PERIAPSIS":"538.658","MEAN_MOTION_DOT":"0.00007821","MEAN_ANOMALY":"277.0093","PERIOD":"95.436","NORAD_CAT_ID":"50177","REF_FRAME":"TEME","REV_AT_EPOCH":"7340","MEAN_MOTION_DDOT":"0.0000000000000","FILE":"3870109","RA_OF_ASC_NODE":"62.0417","APOAPSIS":"540.722","ECCENTRICITY":"0.00014920","EPOCH":"2023-03-24T15:51:56.536992","OBJECT_ID":"2021-125X","OBJECT_TYPE":"PAYLOAD","RCS_SIZE":"LARGE","SEMIMAJOR_AXIS":"6917.825","COUNTRY_CODE":"US","EPHEMERIS_TYPE":"0","MEAN_MOTION":"15.08858225","MEAN_ELEMENT_THEORY":"SGP4","ELEMENT_SET_NO":"999","TLE_LINE1":"1 50177U 21125X   23083.66107103  .00007821  00000-0  50867-3 0  9998","CENTER_NAME":"EARTH","CLASSIFICATION_TYPE":"U"},{"SITE":"AFWTR","LAUNCH_DATE":"2021-12-18","GP_ID":"228822896","INCLINATION":"53.2171","OBJECT_NAME":"STARLINK-3284","BSTAR":"0.00031496000000","ARG_OF_PERICENTER":"65.6482","DECAY_DATE":null,"TLE_LINE2":"2 50178  53.2171  61.8559 0000950  65.6482 294.4610 15.10494248 73443","PERIAPSIS":"534.037","MEAN_MOTION_DOT":"0.00004957","MEAN_ANOMALY":"294.4610","PERIOD":"95.333","TIME_SYSTEM":"UTC","ECCENTRICITY":"0.00009500","EPOCH":"2023-03-24T16:11:25.642176","OBJECT_ID":"2021-125Y","OBJECT_TYPE":"PAYLOAD","RCS_SIZE":"LARGE","SEMIMAJOR_AXIS":"6912.829","COUNTRY_CODE":"US","NORAD_CAT_ID":"50178","REF_FRAME":"TEME","REV_AT_EPOCH":"7344","MEAN_MOTION_DDOT":"0.0000000000000","FILE":"3870109","APOAPSIS":"535.350","RA_OF_ASC_NODE":"61.8559","CENTER_NAME":"EARTH","CLASSIFICATION_TYPE":"U","MEAN_MOTION":"15.10494248","EPHEMERIS_TYPE":"0","ELEMENT_SET_NO":"999","MEAN_ELEMENT_THEORY":"SGP4","TLE_LINE1":"1 50178U 21125Y   23083.67460234  .00004957  00000-0  31496-3 0  9991"},{"PERIOD":"95.437","MEAN_MOTION_DOT":"0.00002690","PERIAPSIS":"539.098","TLE_LINE2":"2 50179  53.2154  62.0763 0000875 104.4099 255.6991 15.08853754 73402","MEAN_ANOMALY":"255.6991","TIME_SYSTEM":"UTC","GP_ID":"228823646","INCLINATION":"53.2154","OBJECT_NAME":"STARLINK-3283","BSTAR":"0.00018698000000","LAUNCH_DATE":"2021-12-18","SITE":"AFWTR","ARG_OF_PERICENTER":"104.4099","DECAY_DATE":null,"CLASSIFICATION_TYPE":"U","CENTER_NAME":"EARTH","MEAN_ELEMENT_THEORY":"SGP4","ELEMENT_SET_NO":"999","TLE_LINE1":"1 50179U 21125Z   23083.65370856  .00002690  00000-0  18698-3 0  9991","EPHEMERIS_TYPE":"0","MEAN_MOTION":"15.08853754","SEMIMAJOR_AXIS":"6917.838","RCS_SIZE":"LARGE","COUNTRY_CODE":"US","EPOCH":"2023-03-24T15:41:20.419584","ECCENTRICITY":"0.00008750","OBJECT_TYPE":"PAYLOAD","OBJECT_ID":"2021-125Z","FILE":"3870109","APOAPSIS":"540.309","RA_OF_ASC_NODE":"62.0763","REF_FRAME":"TEME","NORAD_CAT_ID":"50179","REV_AT_EPOCH":"7340","MEAN_MOTION_DDOT":"0.0000000000000"}];
